CCSDS_OMM_VERS = 2.0
CREATION_DATE  = 
ORIGINATOR     = 

OBJECT_NAME    = CZ-2D R/B
OBJECT_ID      = 2005-024B
CENTER_NAME    = EARTH
REF_FRAME      = TEME
TIME_SYSTEM    = UTC
MEAN_ELEMENT_THEORY = SGP/SGP4

EPOCH          = 2025-12-03T12:09:56.414016
MEAN_MOTION    = 15.52483961
ECCENTRICITY   = .0006893
INCLINATION    = 97.3629
RA_OF_ASC_NODE = 344.7172
ARG_OF_PERICENTER = 36.3476
MEAN_ANOMALY   = 323.8244

EPHEMERIS_TYPE = 0
CLASSIFICATION_TYPE = U
NORAD_CAT_ID   = 28738
ELEMENT_SET_NO = 999
REV_AT_EPOCH   = 12482
BSTAR          = .51048E-3
MEAN_MOTION_DOT = .31253E-3
MEAN_MOTION_DDOT = 0

CCSDS_OMM_VERS = 2.0
CREATION_DATE  = 
ORIGINATOR     = 

OBJECT_NAME    = ALOS (DAICHI)
OBJECT_ID      = 2006-002A
CENTER_NAME    = EARTH
REF_FRAME      = TEME
TIME_SYSTEM    = UTC
MEAN_ELEMENT_THEORY = SGP/SGP4

EPOCH          = 2025-12-03T10:26:07.130400
MEAN_MOTION    = 14.69440311
ECCENTRICITY   = .0000741
INCLINATION    = 98.1077
RA_OF_ASC_NODE = 288.9887
ARG_OF_PERICENTER = 103.7489
MEAN_ANOMALY   = 256.3799

EPHEMERIS_TYPE = 0
CLASSIFICATION_TYPE = U
NORAD_CAT_ID   = 28931
ELEMENT_SET_NO = 999
REV_AT_EPOCH   = 5934
BSTAR          = .38613E-3
MEAN_MOTION_DOT = .2237E-4
MEAN_MOTION_DDOT = 0

CCSDS_OMM_VERS = 2.0
CREATION_DATE  = 
ORIGINATOR     = 

OBJECT_NAME    = H-2A R/B
OBJECT_ID      = 2006-002B
CENTER_NAME    = EARTH
REF_FRAME      = TEME
TIME_SYSTEM    = UTC
MEAN_ELEMENT_THEORY = SGP/SGP4

EPOCH          = 2025-12-03T08:05:06.489024
MEAN_MOTION    = 15.14256927
ECCENTRICITY   = .005456
INCLINATION    = 98.2309
RA_OF_ASC_NODE = 111.3196
ARG_OF_PERICENTER = 208.4189
MEAN_ANOMALY   = 151.4063

EPHEMERIS_TYPE = 0
CLASSIFICATION_TYPE = U
NORAD_CAT_ID   = 28932
ELEMENT_SET_NO = 999
REV_AT_EPOCH   = 7984
BSTAR          = .77007E-3
MEAN_MOTION_DOT = .14551E-3
MEAN_MOTION_DDOT = 0

CCSDS_OMM_VERS = 2.0
CREATION_DATE  = 
ORIGINATOR     = 

OBJECT_NAME    = RESURS-DK 1
OBJECT_ID      = 2006-021A
CENTER_NAME    = EARTH
REF_FRAME      = TEME
TIME_SYSTEM    = UTC
MEAN_ELEMENT_THEORY = SGP/SGP4

EPOCH          = 2025-12-03T12:04:24.593088
MEAN_MOTION    = 15.12074671
ECCENTRICITY   = .0007837
INCLINATION    = 69.9327
RA_OF_ASC_NODE = 125.7053
ARG_OF_PERICENTER = 265.3674
MEAN_ANOMALY   = 94.6597

EPHEMERIS_TYPE = 0
CLASSIFICATION_TYPE = U
NORAD_CAT_ID   = 29228
ELEMENT_SET_NO = 999
REV_AT_EPOCH   = 7298
BSTAR          = .27747E-3
MEAN_MOTION_DOT = .4683E-4
MEAN_MOTION_DDOT = 0

CCSDS_OMM_VERS = 2.0
CREATION_DATE  = 
ORIGINATOR     = 

OBJECT_NAME    = CZ-4B R/B
OBJECT_ID      = 2006-046C
CENTER_NAME    = EARTH
REF_FRAME      = TEME
TIME_SYSTEM    = UTC
MEAN_ELEMENT_THEORY = SGP/SGP4

EPOCH          = 2025-12-03T09:29:00.952224
MEAN_MOTION    = 15.15718471
ECCENTRICITY   = .0032763
INCLINATION    = 97.5750
RA_OF_ASC_NODE = 17.5595
ARG_OF_PERICENTER = 239.9162
MEAN_ANOMALY   = 119.8821

EPHEMERIS_TYPE = 0
CLASSIFICATION_TYPE = U
NORAD_CAT_ID   = 29507
ELEMENT_SET_NO = 999
REV_AT_EPOCH   = 4545
BSTAR          = .41226E-3
MEAN_MOTION_DOT = .7894E-4
MEAN_MOTION_DDOT = 0

CCSDS_OMM_VERS = 2.0
CREATION_DATE  = 
ORIGINATOR     = 

OBJECT_NAME    = CZ-2C R/B
OBJECT_ID      = 2007-010B
CENTER_NAME    = EARTH
REF_FRAME      = TEME
TIME_SYSTEM    = UTC
MEAN_ELEMENT_THEORY = SGP/SGP4

EPOCH          = 2025-12-03T08:21:49.328640
MEAN_MOTION    = 14.20203342
ECCENTRICITY   = .0058477
INCLINATION    = 98.3973
RA_OF_ASC_NODE = 90.4721
ARG_OF_PERICENTER = 213.4462
MEAN_ANOMALY   = 146.3016

EPHEMERIS_TYPE = 0
CLASSIFICATION_TYPE = U
NORAD_CAT_ID   = 31114
ELEMENT_SET_NO = 999
REV_AT_EPOCH   = 96604
BSTAR          = .14055E-3
MEAN_MOTION_DOT = .264E-5
MEAN_MOTION_DDOT = 0

CCSDS_OMM_VERS = 2.0
CREATION_DATE  = 
ORIGINATOR     = 

OBJECT_NAME    = COSMO-SKYMED 1
OBJECT_ID      = 2007-023A
CENTER_NAME    = EARTH
REF_FRAME      = TEME
TIME_SYSTEM    = UTC
MEAN_ELEMENT_THEORY = SGP/SGP4

EPOCH          = 2025-12-03T11:44:27.272256
MEAN_MOTION    = 14.95656321
ECCENTRICITY   = .0001429
INCLINATION    = 97.8841
RA_OF_ASC_NODE = 162.8283
ARG_OF_PERICENTER = 80.9890
MEAN_ANOMALY   = 279.1492

EPHEMERIS_TYPE = 0
CLASSIFICATION_TYPE = U
NORAD_CAT_ID   = 31598
ELEMENT_SET_NO = 999
REV_AT_EPOCH   = 52
BSTAR          = .4747E-3
MEAN_MOTION_DOT = .522E-4
MEAN_MOTION_DDOT = 0

CCSDS_OMM_VERS = 2.0
CREATION_DATE  = 
ORIGINATOR     = 

OBJECT_NAME    = COSMOS 2428
OBJECT_ID      = 2007-029A
CENTER_NAME    = EARTH
REF_FRAME      = TEME
TIME_SYSTEM    = UTC
MEAN_ELEMENT_THEORY = SGP/SGP4

EPOCH          = 2025-12-03T11:07:55.852896
MEAN_MOTION    = 14.12886979
ECCENTRICITY   = .0003144
INCLINATION    = 70.9373
RA_OF_ASC_NODE = 45.3552
ARG_OF_PERICENTER = 37.4012
MEAN_ANOMALY   = 322.7327

EPHEMERIS_TYPE = 0
CLASSIFICATION_TYPE = U
NORAD_CAT_ID   = 31792
ELEMENT_SET_NO = 999
REV_AT_EPOCH   = 95050
BSTAR          = .40414E-4
MEAN_MOTION_DOT = .27E-6
MEAN_MOTION_DDOT = 0

CCSDS_OMM_VERS = 2.0
CREATION_DATE  = 
ORIGINATOR     = 

OBJECT_NAME    = SL-16 R/B
OBJECT_ID      = 2007-029B
CENTER_NAME    = EARTH
REF_FRAME      = TEME
TIME_SYSTEM    = UTC
MEAN_ELEMENT_THEORY = SGP/SGP4

EPOCH          = 2025-12-03T11:45:31.336128
MEAN_MOTION    = 14.14816225
ECCENTRICITY   = .0002439
INCLINATION    = 70.9769
RA_OF_ASC_NODE = 14.6021
ARG_OF_PERICENTER = 265.9046
MEAN_ANOMALY   = 201.5189

EPHEMERIS_TYPE = 0
CLASSIFICATION_TYPE = U
NORAD_CAT_ID   = 31793
ELEMENT_SET_NO = 999
REV_AT_EPOCH   = 95176
BSTAR          = -.61352E-4
MEAN_MOTION_DOT = -.166E-5
MEAN_MOTION_DDOT = 0

CCSDS_OMM_VERS = 2.0
CREATION_DATE  = 
ORIGINATOR     = 

OBJECT_NAME    = KORONAS-FOTON
OBJECT_ID      = 2009-003A
CENTER_NAME    = EARTH
REF_FRAME      = TEME
TIME_SYSTEM    = UTC
MEAN_ELEMENT_THEORY = SGP/SGP4

EPOCH          = 2025-12-03T03:27:38.117952
MEAN_MOTION    = 15.40861902
ECCENTRICITY   = .00126748
INCLINATION    = 82.4326
RA_OF_ASC_NODE = 16.0469
ARG_OF_PERICENTER = 139.1917
MEAN_ANOMALY   = 221.0280

EPHEMERIS_TYPE = 0
CLASSIFICATION_TYPE = U
NORAD_CAT_ID   = 33504
ELEMENT_SET_NO = 999
REV_AT_EPOCH   = 93086
BSTAR          = .36589776E-3
MEAN_MOTION_DOT = .15101E-3
MEAN_MOTION_DDOT = 0

CCSDS_OMM_VERS = 2.0
CREATION_DATE  = 
ORIGINATOR     = 

OBJECT_NAME    = CZ-2C R/B
OBJECT_ID      = 2011-030B
CENTER_NAME    = EARTH
REF_FRAME      = TEME
TIME_SYSTEM    = UTC
MEAN_ELEMENT_THEORY = SGP/SGP4

EPOCH          = 2025-12-03T11:33:33.467904
MEAN_MOTION    = 14.80849192
ECCENTRICITY   = .0051719
INCLINATION    = 97.8395
RA_OF_ASC_NODE = 291.7941
ARG_OF_PERICENTER = 304.6005
MEAN_ANOMALY   = 168.1488

EPHEMERIS_TYPE = 0
CLASSIFICATION_TYPE = U
NORAD_CAT_ID   = 37731
ELEMENT_SET_NO = 999
REV_AT_EPOCH   = 77585
BSTAR          = .3481E-3
MEAN_MOTION_DOT = .2694E-4
MEAN_MOTION_DDOT = 0

CCSDS_OMM_VERS = 2.0
CREATION_DATE  = 
ORIGINATOR     = 

OBJECT_NAME    = H-2A R/B
OBJECT_ID      = 2012-025E
CENTER_NAME    = EARTH
REF_FRAME      = TEME
TIME_SYSTEM    = UTC
MEAN_ELEMENT_THEORY = SGP/SGP4

EPOCH          = 2025-12-03T11:11:51.878688
MEAN_MOTION    = 14.94344662
ECCENTRICITY   = .0043934
INCLINATION    = 98.4578
RA_OF_ASC_NODE = 291.9829
ARG_OF_PERICENTER = 267.6903
MEAN_ANOMALY   = 91.9284

EPHEMERIS_TYPE = 0
CLASSIFICATION_TYPE = U
NORAD_CAT_ID   = 38341
ELEMENT_SET_NO = 999
REV_AT_EPOCH   = 73384
BSTAR          = .45341E-3
MEAN_MOTION_DOT = .4901E-4
MEAN_MOTION_DDOT = 0

