CZ-2D R/B               
1 28738U 05024B   25337.50690294  .00031253  00000+0  51048-3 0  9998
2 28738  97.3629 344.7172 0006893  36.3476 323.8244 15.52483961124826
ALOS (DAICHI)           
1 28931U 06002A   25337.43480475  .00002237  00000+0  38613-3 0  9993
2 28931  98.1077 288.9887 0000741 103.7489 256.3799 14.69440311 59346
H-2A R/B                
1 28932U 06002B   25337.33688066  .00014551  00000+0  77007-3 0  9991
2 28932  98.2309 111.3196 0054560 208.4189 151.4063 15.14256927 79841
RESURS-DK 1             
1 29228U 06021A   25337.50306242  .00004683  00000+0  27747-3 0  9994
2 29228  69.9327 125.7053 0007837 265.3674  94.6597 15.12074671 72982
CZ-4B R/B               
1 29507U 06046C   25337.39514991  .00007894  00000+0  41226-3 0  9995
2 29507  97.5750  17.5595 0032763 239.9162 119.8821 15.15718471 45451
CZ-2C R/B               
1 31114U 07010B   25337.34848760  .00000264  00000+0  14055-3 0  9997
2 31114  98.3973  90.4721 0058477 213.4462 146.3016 14.20203342966044
COSMO-SKYMED 1          
1 31598U 07023A   25337.48920454  .00005220  00000+0  47470-3 0  9997
2 31598  97.8841 162.8283 0001429  80.9890 279.1492 14.95656321   528
COSMOS 2428             
1 31792U 07029A   25337.46384089  .00000027  00000+0  40414-4 0  9997
2 31792  70.9373  45.3552 0003144  37.4012 322.7327 14.12886979950506
SL-16 R/B               
1 31793U 07029B   25337.48994602 -.00000166  00000+0 -61352-4 0  9998
2 31793  70.9769  14.6021 0002439 265.9046 201.5189 14.14816225951765
KORONAS-FOTON           
1 33504U 09003A   25337.14419118  .00015101  00000+0  36590-3 0  9999
2 33504  82.4326  16.0469 0012674 139.1917 221.0280 15.40861902930866
CZ-2C R/B               
1 37731U 11030B   25337.48163736  .00002694  00000+0  34810-3 0  9993
2 37731  97.8395 291.7941 0051719 304.6005 168.1488 14.80849192775852
H-2A R/B                
1 38341U 12025E   25337.46657267  .00004901  00000+0  45341-3 0  9995
2 38341  98.4578 291.9829 0043934 267.6903  91.9284 14.94344662733849
